[Satellite]
VERSION=1.1
NAME=SAC-D
NICKNAME=SAC-D
TLE1=1 37673U 11024A   15054.98899315  .00000726  00000-0  12250-3 0  9999
TLE2=2 37673  98.0129  63.5865 0001402 104.2375 308.0092 14.72352529199280
